STARLINK-32313          
1 61527U 24183U   26068.52667356  .00001186  00000+0  52166-4 0  9990
2 61527  53.1606 143.4622 0001270 105.6514 254.4627 15.30190362 79622
BANDWAGON-2 OBJECT D    
1 62380U 24247D   26068.52261193  .00011259  00000+0  40119-3 0  9994
2 62380  44.9954 115.6710 0003488 351.1453   8.9368 15.29076102 67732
